COSMOS 2475 (743)       
1 37869U 11064C   17345.57038366  .00000100  00000-0  00000-0 0  9994
2 37869  64.4998 178.2580 0017990 269.9154 160.2801  2.13102118 47512
